OBJECT_NAME,OBJECT_ID,EPOCH,MEAN_MOTION,ECCENTRICITY,INCLINATION,RA_OF_ASC_NODE,ARG_OF_PERICENTER,MEAN_ANOMALY,EPHEMERIS_TYPE,CLASSIFICATION_TYPE,NORAD_CAT_ID,ELEMENT_SET_NO,REV_AT_EPOCH,BSTAR,MEAN_MOTION_DOT,MEAN_MOTION_DDOT
FENGYUN 3D,2017-072A,2026-07-19T22:02:00.644928,14.19744742,.0001231,99.0154,175.9355,4.5279,355.5907,0,U,43010,999,44963,.71754E-5,-.31E-6,0
NOAA 20 (JPSS-1),2017-073A,2026-07-19T18:39:30.540384,14.19517009,.0001545,98.7772,139.9515,119.7113,240.4217,0,U,43013,999,44909,.32532E-4,.24E-6,0
GOES 17,2018-022A,2026-07-19T19:35:42.658080,1.00272159,.0000564,1.0190,85.1899,61.5662,355.2682,0,U,43226,999,3075,0,-.186E-5,0
SENTINEL-3B,2018-039A,2026-07-19T19:12:07.756128,14.26737156,.0001247,98.6232,267.8617,118.8070,241.3236,0,U,43437,999,42877,.3225E-4,.34E-6,0
FENGYUN 2H,2018-050A,2026-07-19T20:23:49.219008,1.00266948,.0002141,3.1137,78.6949,131.0542,112.8942,0,U,43491,999,2976,0,-.131E-5,0
METOP-C,2018-087A,2026-07-19T19:09:19.345248,14.21503604,.0002111,98.6626,259.8026,87.7885,272.3534,0,U,43689,999,39946,.32276E-4,.27E-6,0
GEO-KOMPSAT-2A,2018-100A,2026-07-19T19:24:45.548064,1.00272562,.0002365,0.0288,148.5841,309.0666,259.3887,0,U,43823,999,2795,0,-.347E-5,0
METEOR-M2 2,2019-038A,2026-07-19T21:49:01.114752,14.24372530,.0000414,98.9169,188.6804,353.1684,6.9488,0,U,44387,999,36595,-.11255E-3,-.306E-5,0
ARKTIKA-M 1,2021-016A,2026-07-14T09:46:38.558208,2.00611590,.7297332,63.2662,53.6722,270.0591,14.4994,0,U,47719,999,3933,0,-.301E-5,0
FENGYUN 3E,2021-062A,2026-07-19T19:52:06.595968,14.19906234,.0002017,98.7505,203.8730,31.9545,328.1754,0,U,49008,999,26121,-.60006E-4,-.171E-5,0
GOES 18,2022-021A,2026-07-19T17:39:30.046752,1.00272002,.0000616,0.0158,91.1760,60.7789,273.4501,0,U,51850,999,691,0,0,0
NOAA 21 (JPSS-2),2022-150A,2026-07-19T19:25:54.668928,14.19541530,.0002913,98.7059,139.0510,96.4097,263.7411,0,U,54234,999,19117,.2815E-4,.16E-6,0
METEOSAT-12 (MTG-I1),2022-170C,2026-07-19T20:01:10.216128,1.00269127,.0004022,0.7299,20.5383,81.1213,135.8737,0,U,54743,999,1330,0,-.12E-6,0
TIANMU-1 03,2023-039A,2026-07-19T19:53:55.726944,15.48124474,.0002176,97.5250,16.1004,10.4541,349.6754,0,U,55973,999,18588,.16861E-3,.8753E-4,0
TIANMU-1 04,2023-039B,2026-07-19T19:20:09.423168,15.48754136,.0002544,97.5192,15.2324,354.6768,5.4454,0,U,55974,999,18589,.17009E-3,.9027E-4,0
TIANMU-1 05,2023-039C,2026-07-19T19:28:32.051712,15.48048902,.0002552,97.5235,15.6849,34.4516,325.6899,0,U,55975,999,18586,.16424E-3,.8501E-4,0
TIANMU-1 06,2023-039D,2026-07-19T19:28:03.956160,15.48649756,.0002588,97.5243,16.3535,24.1678,335.9693,0,U,55976,999,18589,.16664E-3,.881E-4,0
FENGYUN 3G,2023-055A,2026-07-19T20:23:55.807008,15.53923055,.000689,49.9915,177.5451,77.9178,282.2561,0,U,56232,999,18508,.21883E-3,.1396E-3,0
METEOR-M2 3,2023-091A,2026-07-19T20:10:33.642624,14.24049134,.0005104,98.6065,255.1476,79.9728,280.2027,0,U,57166,999,15916,.31093E-5,-.36E-6,0
TIANMU-1 07,2023-101A,2026-07-19T20:47:55.800384,15.30146118,.0003421,97.2573,250.7885,55.0334,305.1228,0,U,57399,999,16664,.11363E-3,.324E-4,0
TIANMU-1 08,2023-101B,2026-07-19T19:59:46.231872,15.30149148,.0004161,97.2562,250.5217,33.7214,326.4291,0,U,57400,999,16663,.10833E-3,.3086E-4,0
TIANMU-1 09,2023-101C,2026-07-19T21:08:56.069664,15.30192255,.0004016,97.2520,249.9679,53.9390,306.2223,0,U,57401,999,16664,.11924E-3,.3409E-4,0
TIANMU-1 10,2023-101D,2026-07-19T20:23:10.821120,15.30165593,.0005235,97.2599,251.0207,41.4273,318.7364,0,U,57402,999,16663,.11937E-3,.3411E-4,0
FENGYUN 3F,2023-111A,2026-07-19T19:27:48.843072,14.19943877,.0001184,98.6822,270.2094,75.3123,284.8184,0,U,57490,999,15349,.20644E-4,0,0
ARKTIKA-M 2,2023-198A,2026-07-15T04:12:00.091584,2.00608092,.69107365,63.2178,151.2342,267.3397,18.7345,0,U,58584,999,1888,0,.129E-5,0
TIANMU-1 11,2023-205A,2026-07-19T21:08:12.950880,15.27289971,.000701,97.3445,221.9301,241.1320,118.9216,0,U,58645,999,14251,.10243E-3,.2666E-4,0
TIANMU-1 12,2023-205B,2026-07-18T09:53:22.905024,15.27114343,.00060948,97.3431,220.2298,220.4884,139.5903,0,U,58646,999,14227,.10886909E-3,.2823E-4,0
TIANMU-1 13,2023-205C,2026-07-19T21:17:24.200160,15.27115703,.0006326,97.3461,221.9632,193.9155,166.1911,0,U,58647,999,14249,.11132E-3,.2888E-4,0
TIANMU-1 14,2023-205D,2026-07-19T20:54:44.183808,15.27159189,.0006924,97.3398,221.1039,201.3220,158.7732,0,U,58648,999,14249,.10833E-3,.2813E-4,0
TIANMU-1 19,2023-208A,2026-07-19T19:38:32.319168,15.32016962,.0005059,97.4527,317.3001,181.6139,178.5087,0,U,58660,999,14232,.14282E-3,.4336E-4,0
TIANMU-1 20,2023-208B,2026-07-19T19:56:31.658208,15.33206477,.0006786,97.4470,317.9820,194.7395,165.3651,0,U,58661,999,14242,.13971E-3,.4404E-4,0
