FENGYUN 3D              
1 43010U 17072A   26200.91806302 -.00000031  00000+0  71754-5 0  9997
2 43010  99.0154 175.9355 0001231   4.5279 355.5907 14.19744742449630
NOAA 20 (JPSS-1)        
1 43013U 17073A   26200.77743681  .00000024  00000+0  32532-4 0  9996
2 43013  98.7772 139.9515 0001545 119.7113 240.4217 14.19517009449097
GOES 17                 
1 43226U 18022A   26200.81646595 -.00000186  00000+0  00000+0 0  9998
2 43226   1.0190  85.1899 0000564  61.5662 355.2682  1.00272159 30754
SENTINEL-3B             
1 43437U 18039A   26200.80008977  .00000034  00000+0  32250-4 0  9993
2 43437  98.6232 267.8617 0001247 118.8070 241.3236 14.26737156428770
FENGYUN 2H              
1 43491U 18050A   26200.84987522 -.00000131  00000+0  00000+0 0  9994
2 43491   3.1137  78.6949 0002141 131.0542 112.8942  1.00266948 29762
METOP-C                 
1 43689U 18087A   26200.79814057  .00000027  00000+0  32276-4 0  9997
2 43689  98.6626 259.8026 0002111  87.7885 272.3534 14.21503604399462
GEO-KOMPSAT-2A          
1 43823U 18100A   26200.80886051 -.00000347  00000+0  00000+0 0  9999
2 43823   0.0288 148.5841 0002365 309.0666 259.3887  1.00272562 27957
METEOR-M2 2             
1 44387U 19038A   26200.90904068 -.00000306  00000+0 -11255-3 0  9990
2 44387  98.9169 188.6804 0000414 353.1684   6.9488 14.24372530365958
ARKTIKA-M 1             
1 47719U 21016A   26195.40739072 -.00000301  00000+0  00000+0 0  9996
2 47719  63.2662  53.6722 7297332 270.0591  14.4994  2.00611590 39330
FENGYUN 3E              
1 49008U 21062A   26200.82785412 -.00000171  00000+0 -60006-4 0  9995
2 49008  98.7505 203.8730 0002017  31.9545 328.1754 14.19906234261218
GOES 18                 
1 51850U 22021A   26200.73576443  .00000000  00000+0  00000+0 0  9993
2 51850   0.0158  91.1760 0000616  60.7789 273.4501  1.00272002  6911
NOAA 21 (JPSS-2)        
1 54234U 22150A   26200.80966052  .00000016  00000+0  28150-4 0  9990
2 54234  98.7059 139.0510 0002913  96.4097 263.7411 14.19541530191173
METEOSAT-12 (MTG-I1)    
1 54743U 22170C   26200.83414602 -.00000012  00000+0  00000+0 0  9995
2 54743   0.7299  20.5383 0004022  81.1213 135.8737  1.00269127 13306
TIANMU-1 03             
1 55973U 23039A   26200.82911721  .00008753  00000+0  16861-3 0  9994
2 55973  97.5250  16.1004 0002176  10.4541 349.6754 15.48124474185880
TIANMU-1 04             
1 55974U 23039B   26200.80566462  .00009027  00000+0  17009-3 0  9991
2 55974  97.5192  15.2324 0002544 354.6768   5.4454 15.48754136185893
TIANMU-1 05             
1 55975U 23039C   26200.81148208  .00008501  00000+0  16424-3 0  9993
2 55975  97.5235  15.6849 0002552  34.4516 325.6899 15.48048902185865
TIANMU-1 06             
1 55976U 23039D   26200.81115690  .00008810  00000+0  16664-3 0  9992
2 55976  97.5243  16.3535 0002588  24.1678 335.9693 15.48649756185892
FENGYUN 3G              
1 56232U 23055A   26200.84995147  .00013960  00000+0  21883-3 0  9993
2 56232  49.9915 177.5451 0006890  77.9178 282.2561 15.53923055185085
METEOR-M2 3             
1 57166U 23091A   26200.84066716 -.00000036  00000+0  31093-5 0  9998
2 57166  98.6065 255.1476 0005104  79.9728 280.2027 14.24049134159168
TIANMU-1 07             
1 57399U 23101A   26200.86661806  .00003240  00000+0  11363-3 0  9996
2 57399  97.2573 250.7885 0003421  55.0334 305.1228 15.30146118166647
TIANMU-1 08             
1 57400U 23101B   26200.83317398  .00003086  00000+0  10833-3 0  9999
2 57400  97.2562 250.5217 0004161  33.7214 326.4291 15.30149148166638
TIANMU-1 09             
1 57401U 23101C   26200.88120451  .00003409  00000+0  11924-3 0  9998
2 57401  97.2520 249.9679 0004016  53.9390 306.2223 15.30192255166644
TIANMU-1 10             
1 57402U 23101D   26200.84943080  .00003411  00000+0  11937-3 0  9993
2 57402  97.2599 251.0207 0005235  41.4273 318.7364 15.30165593166636
FENGYUN 3F              
1 57490U 23111A   26200.81098198  .00000000  00000+0  20644-4 0  9996
2 57490  98.6822 270.2094 0001184  75.3123 284.8184 14.19943877153491
ARKTIKA-M 2             
1 58584U 23198A   26196.17500106  .00000129  00000+0  00000+0 0  9997
2 58584  63.2178 151.2342 6910736 267.3397  18.7345  2.00608092 18886
TIANMU-1 11             
1 58645U 23205A   26200.88070545  .00002666  00000+0  10243-3 0  9999
2 58645  97.3445 221.9301 0007010 241.1320 118.9216 15.27289971142513
TIANMU-1 12             
1 58646U 23205B   26199.41207066  .00002823  00000+0  10887-3 0  9995
2 58646  97.3431 220.2298 0006094 220.4884 139.5903 15.27114343142277
TIANMU-1 13             
1 58647U 23205C   26200.88708565  .00002888  00000+0  11132-3 0  9995
2 58647  97.3461 221.9632 0006326 193.9155 166.1911 15.27115703142494
TIANMU-1 14             
1 58648U 23205D   26200.87134472  .00002813  00000+0  10833-3 0  9990
2 58648  97.3398 221.1039 0006924 201.3220 158.7732 15.27159189142492
TIANMU-1 19             
1 58660U 23208A   26200.81842962  .00004336  00000+0  14282-3 0  9995
2 58660  97.4527 317.3001 0005059 181.6139 178.5087 15.32016962142327
TIANMU-1 20             
1 58661U 23208B   26200.83092197  .00004404  00000+0  13971-3 0  9995
2 58661  97.4470 317.9820 0006786 194.7395 165.3651 15.33206477142422
